{"type": "FeatureCollection", "features": [ {"type": "Feature", "properties": {"norad_id": 67090, "name": "STARLINK-36060", "group": "last-30-days", "lat": 68.00453517840505, "lon": -18.464014571911108, "alt_km": 295.5192196945163, "timestamp": "2025-12-21T05:44:50.294777+00:00", "meta": {"OBJECT_NAME": "STARLINK-36060", "OBJECT_ID": "2025-298R", "EPOCH": "2025-12-20T22:00:01.999584", "MEAN_MOTION": 15.91786862, "ECCENTRICITY": 0.00040654, "INCLINATION": 69.9976, "RA_OF_ASC_NODE": 226.8742, "ARG_OF_PERICENTER": 274.8072, "MEAN_ANOMALY": 136.007, "EPHEMERIS_TYPE": 0, "CLASSIFICATION_TYPE": "U", "NORAD_CAT_ID": 67090, "ELEMENT_SET_NO": 999, "REV_AT_EPOCH": 223, "BSTAR": -0.0051208927, "MEAN_MOTION_DOT": -0.01672926, "MEAN_MOTION_DDOT": 0.00078010248}, "tle": {"line1": "1 67090U 25298R   25354.91668981 -.01672926  78010-3 -51209-2 0  9998", "line2": "2 67090  69.9976 226.8742 0004065 274.8072 136.0070 15.91786862  2233"}}, "geometry": {"type": "Point", "coordinates": [-18.464014571911108, 68.00453517840505]}}, {"type": "Feature", "properties": {"norad_id": 67091, "name": "STARLINK-36097", "group": "last-30-days", "lat": 67.17921072699191, "lon": -14.028282658786686, "alt_km": 295.35677486357054, "timestamp": "2025-12-21T05:44:50.294787+00:00", "meta": {"OBJECT_NAME": "STARLINK-36097", "OBJECT_ID": "2025-298S", "EPOCH": "2025-12-20T22:00:01.999584", "MEAN_MOTION": 15.91860411, "ECCENTRICITY": 0.00040427, "INCLINATION": 69.9979, "RA_OF_ASC_NODE": 226.872, "ARG_OF_PERICENTER": 271.8756, "MEAN_ANOMALY": 140.7385, "EPHEMERIS_TYPE": 0, "CLASSIFICATION_TYPE": "U", "NORAD_CAT_ID": 67091, "ELEMENT_SET_NO": 999, "REV_AT_EPOCH": 229, "BSTAR": -0.0051283264, "MEAN_MOTION_DOT": -0.01681584, "MEAN_MOTION_DDOT": 0.00078818278}, "tle": {"line1": "1 67091U 25298S   25354.91668981 -.01681584  78818-3 -51283-2 0  9997", "line2": "2 67091  69.9979 226.8720 0004042 271.8756 140.7385 15.91860411  2294"}}, "geometry": {"type": "Point", "coordinates": [-14.028282658786686, 67.17921072699191]}}, {"type": "Feature", "properties": {"norad_id": 67092, "name": "STARLINK-35792", "group": "last-30-days", "lat": 66.40694688248715, "lon": -10.58748166116495, "alt_km": 295.28359185528916, "timestamp": "2025-12-21T05:44:50.294799+00:00", "meta": {"OBJECT_NAME": "STARLINK-35792", "OBJECT_ID": "2025-298T", "EPOCH": "2025-12-20T22:00:01.999584", "MEAN_MOTION": 15.91916636, "ECCENTRICITY": 0.00040479, "INCLINATION": 69.9977, "RA_OF_ASC_NODE": 226.8702, "ARG_OF_PERICENTER": 273.8335, "MEAN_ANOMALY": 140.2738, "EPHEMERIS_TYPE": 0, "CLASSIFICATION_TYPE": "U", "NORAD_CAT_ID": 67092, "ELEMENT_SET_NO": 999, "REV_AT_EPOCH": 223, "BSTAR": -0.0051227482, "MEAN_MOTION_DOT": -0.0168459, "MEAN_MOTION_DDOT": 0.00079124169}, "tle": {"line1": "1 67092U 25298T   25354.91668981 -.01684590  79124-3 -51227-2 0  9997", "line2": "2 67092  69.9977 226.8702 0004047 273.8335 140.2738 15.91916636  2235"}}, "geometry": {"type": "Point", "coordinates": [-10.58748166116495, 66.40694688248715]}}, {"type": "Feature", "properties": {"norad_id": 67093, "name": "STARLINK-35784", "group": "last-30-days", "lat": 65.48108344087814, "lon": -7.070294836600614, "alt_km": 295.18766816049356, "timestamp": "2025-12-21T05:44:50.294809+00:00", "meta": {"OBJECT_NAME": "STARLINK-35784", "OBJECT_ID": "2025-298U", "EPOCH": "2025-12-20T22:00:01.999584", "MEAN_MOTION": 15.91982514, "ECCENTRICITY": 0.0004036, "INCLINATION": 69.9976, "RA_OF_ASC_NODE": 226.8681, "ARG_OF_PERICENTER": 274.701, "MEAN_ANOMALY": 141.0372, "EPHEMERIS_TYPE": 0, "CLASSIFICATION_TYPE": "U", "NORAD_CAT_ID": 67093, "ELEMENT_SET_NO": 999, "REV_AT_EPOCH": 229, "BSTAR": -0.0051299441, "MEAN_MOTION_DOT": -0.01692585, "MEAN_MOTION_DDOT": 0.00079874721}, "tle": {"line1": "1 67093U 25298U   25354.91668981 -.01692585  79875-3 -51299-2 0  9993", "line2": "2 67093  69.9976 226.8681 0004036 274.7010 141.0372 15.91982514  2296"}}, "geometry": {"type": "Point", "coordinates": [-7.070294836600614, 65.48108344087814]}}, {"type": "Feature", "properties": {"norad_id": 67094, "name": "STARLINK-36202", "group": "last-30-days", "lat": 64.33869618616285, "lon": -3.380500982460561, "alt_km": 295.1159437504575, "timestamp": "2025-12-21T05:44:50.294819+00:00", "meta": {"OBJECT_NAME": "STARLINK-36202", "OBJECT_ID": "2025-298V", "EPOCH": "2025-12-20T22:00:01.999584", "MEAN_MOTION": 15.92052774, "ECCENTRICITY": 0.00040353, "INCLINATION": 69.9975, "RA_OF_ASC_NODE": 226.8659, "ARG_OF_PERICENTER": 275.3919, "MEAN_ANOMALY": 142.2046, "EPHEMERIS_TYPE": 0, "CLASSIFICATION_TYPE": "U", "NORAD_CAT_ID": 67094, "ELEMENT_SET_NO": 999, "REV_AT_EPOCH": 229, "BSTAR": -0.0051526383, "MEAN_MOTION_DOT": -0.01706076, "MEAN_MOTION_DDOT": 0.00081117135}, "tle": {"line1": "1 67094U 25298V   25354.91668981 -.01706076  81117-3 -51526-2 0  9990", "line2": "2 67094  69.9975 226.8659 0004035 275.3919 142.2046 15.92052774  2293"}}, "geometry": {"type": "Point", "coordinates": [-3.380500982460561, 64.33869618616285]}}, {"type": "Feature", "properties": {"norad_id": 67095, "name": "STARLINK-36227", "group": "last-30-days", "lat": 63.20552357137549, "lon": -0.23888996944516447, "alt_km": 295.0057146799518, "timestamp": "2025-12-21T05:44:50.294829+00:00", "meta": {"OBJECT_NAME": "STARLINK-36227", "OBJECT_ID": "2025-298W", "EPOCH": "2025-12-20T22:00:01.999584", "MEAN_MOTION": 15.92122152, "ECCENTRICITY": 0.00040358, "INCLINATION": 69.9973, "RA_OF_ASC_NODE": 226.8638, "ARG_OF_PERICENTER": 272.6433, "MEAN_ANOMALY": 146.6694, "EPHEMERIS_TYPE": 0, "CLASSIFICATION_TYPE": "U", "NORAD_CAT_ID": 67095, "ELEMENT_SET_NO": 999, "REV_AT_EPOCH": 223, "BSTAR": -0.0051669702, "MEAN_MOTION_DOT": -0.01716824, "MEAN_MOTION_DDOT": 0.0008212551}, "tle": {"line1": "1 67095U 25298W   25354.91668981 -.01716824  82126-3 -51670-2 0  9994", "line2": "2 67095  69.9973 226.8638 0004035 272.6433 146.6694 15.92122152  2239"}}, "geometry": {"type": "Point", "coordinates": [-0.23888996944516447, 63.20552357137549]}}, {"type": "Feature", "properties": {"norad_id": 67096, "name": "STARLINK-36228", "group": "last-30-days", "lat": 62.20698654317771, "lon": 2.204913004731278, "alt_km": 295.0123220712758, "timestamp": "2025-12-21T05:44:50.294841+00:00", "meta": {"OBJECT_NAME": "STARLINK-36228", "OBJECT_ID": "2025-298X", "EPOCH": "2025-12-20T22:00:01.999584", "MEAN_MOTION": 15.92181467, "ECCENTRICITY": 0.00040944, "INCLINATION": 69.9974, "RA_OF_ASC_NODE": 226.8623, "ARG_OF_PERICENTER": 275.1841, "MEAN_ANOMALY": 145.5603, "EPHEMERIS_TYPE": 0, "CLASSIFICATION_TYPE": "U", "NORAD_CAT_ID": 67096, "ELEMENT_SET_NO": 999, "REV_AT_EPOCH": 223, "BSTAR": -0.0051736297, "MEAN_MOTION_DOT": -0.01724256, "MEAN_MOTION_DDOT": 0.00082836224}, "tle": {"line1": "1 67096U 25298X   25354.91668981 -.01724256  82836-3 -51736-2 0  9994", "line2": "2 67096  69.9974 226.8623 0004094 275.1841 145.5603 15.92181467  2233"}}, "geometry": {"type": "Point", "coordinates": [2.204913004731278, 62.20698654317771]}}, {"type": "Feature", "properties": {"norad_id": 67097, "name": "STARLINK-36222", "group": "last-30-days", "lat": 60.999089807778276, "lon": 4.838476447039264, "alt_km": 294.8840503684296, "timestamp": "2025-12-21T05:44:50.294852+00:00", "meta": {"OBJECT_NAME": "STARLINK-36222", "OBJECT_ID": "2025-298Y", "EPOCH": "2025-12-20T22:00:01.999584", "MEAN_MOTION": 15.92251921, "ECCENTRICITY": 0.00039946, "INCLINATION": 69.9973, "RA_OF_ASC_NODE": 226.8602, "ARG_OF_PERICENTER": 275.2037, "MEAN_ANOMALY": 147.2024, "EPHEMERIS_TYPE": 0, "CLASSIFICATION_TYPE": "U", "NORAD_CAT_ID": 67097, "ELEMENT_SET_NO": 999, "REV_AT_EPOCH": 223, "BSTAR": -0.0051977041, "MEAN_MOTION_DOT": -0.01738357, "MEAN_MOTION_DDOT": 0.00084158627}, "tle": {"line1": "1 67097U 25298Y   25354.91668981 -.01738357  84159-3 -51977-2 0  9999", "line2": "2 67097  69.9973 226.8602 0003994 275.2037 147.2024 15.92251921  2235"}}, "geometry": {"type": "Point", "coordinates": [4.838476447039264, 60.999089807778276]}}, {"type": "Feature", "properties": {"norad_id": 67098, "name": "STARLINK-36205", "group": "last-30-days", "lat": 59.59429084215615, "lon": 7.547981091292491, "alt_km": 294.8693360474599, "timestamp": "2025-12-21T05:44:50.294861+00:00", "meta": {"OBJECT_NAME": "STARLINK-36205", "OBJECT_ID": "2025-298Z", "EPOCH": "2025-12-20T22:00:01.999584", "MEAN_MOTION": 15.92323938, "ECCENTRICITY": 0.00040482, "INCLINATION": 69.9973, "RA_OF_ASC_NODE": 226.858, "ARG_OF_PERICENTER": 274.383, "MEAN_ANOMALY": 149.8887, "EPHEMERIS_TYPE": 0, "CLASSIFICATION_TYPE": "U", "NORAD_CAT_ID": 67098, "ELEMENT_SET_NO": 999, "REV_AT_EPOCH": 229, "BSTAR": -0.0052338585, "MEAN_MOTION_DOT": -0.01756787, "MEAN_MOTION_DDOT": 0.00085887036}, "tle": {"line1": "1 67098U 25298Z   25354.91668981 -.01756787  85887-3 -52339-2 0  9999", "line2": "2 67098  69.9973 226.8580 0004048 274.3830 149.8887 15.92323938  2292"}}, "geometry": {"type": "Point", "coordinates": [7.547981091292491, 59.59429084215615]}}, {"type": "Feature", "properties": {"norad_id": 67099, "name": "STARLINK-36193", "group": "last-30-days", "lat": 57.373549204051955, "lon": 11.23377835751925, "alt_km": 294.78845751869176, "timestamp": "2025-12-21T05:44:50.294873+00:00", "meta": {"OBJECT_NAME": "STARLINK-36193", "OBJECT_ID": "2025-298AA", "EPOCH": "2025-12-20T22:00:01.999584", "MEAN_MOTION": 15.92445455, "ECCENTRICITY": 0.00040869, "INCLINATION": 69.9973, "RA_OF_ASC_NODE": 226.8548, "ARG_OF_PERICENTER": 273.4846, "MEAN_ANOMALY": 153.5917, "EPHEMERIS_TYPE": 0, "CLASSIFICATION_TYPE": "U", "NORAD_CAT_ID": 67099, "ELEMENT_SET_NO": 999, "REV_AT_EPOCH": 223, "BSTAR": -0.0052629585, "MEAN_MOTION_DOT": -0.01777472, "MEAN_MOTION_DDOT": 0.00087885553}, "tle": {"line1": "1 67099U 25298AA  25354.91668981 -.01777472  87886-3 -52630-2 0  9999", "line2": "2 67099  69.9973 226.8548 0004086 273.4846 153.5917 15.92445455  2235"}}, "geometry": {"type": "Point", "coordinates": [11.23377835751925, 57.373549204051955]}}]}